ONEWEB-0160             
1 48060U 21025U   24079.62034601 -.00000165  00000+0 -48682-3 0  9996
2 48060  87.8929 123.3878 0002266  73.5959 286.5419 13.13470740145970
ONEWEB-0163             
1 48061U 21025V   24079.52988043 -.00000298  00000+0 -85193-3 0  9999
2 48061  87.8930 123.4015 0001977 106.9276 253.2070 13.13470182146096
ONEWEB-0159             
1 48062U 21025W   24079.51877265 -.00000126  00000+0 -38071-3 0  9995
2 48062  87.8928 123.3879 0002204 105.0543 255.0830 13.13469470146005
ONEWEB-0164             
1 48063U 21025X   24079.50132131  .00000257  00000+0  66817-3 0  9993
2 48063  87.8926 123.4012 0001835  95.4972 264.6367 13.13469005145982
ONEWEB-0167             
1 48064U 21025Y   24079.53065838 -.00000305  00000+0 -86970-3 0  9994
2 48064  87.8929 123.4060 0001977 104.1140 256.0209 13.13469064145975
ONEWEB-0166             
1 48065U 21025Z   24079.62828549  .00000079  00000+0  18249-3 0  9991
2 48065  87.8922 123.3732 0002193 100.0514 260.0863 13.13470482146063
ONEWEB-0151             
1 48066U 21025AA  24079.62986756  .00000044  00000+0  86301-4 0  9994
2 48066  87.8925 123.3839 0001773  96.0176 264.1156 13.13471325146018
ONEWEB-0170             
1 48067U 21025AB  24079.48545125  .00000135  00000+0  33579-3 0  9999
2 48067  87.8925 123.4147 0001559  78.0944 282.0360 13.13469968145944
